GLOBALSTAR M079 [+]     
1 37188U 10054A   22254.17491910 -.00000081  00000+0  12918-3 0  9997
2 37188  52.0058 334.4300 0000508 122.6714 252.7261 12.62265002549584
GLOBALSTAR M074 [+]     
1 37189U 10054B   22254.20300642 -.00000079  00000+0  13985-3 0  9995
2 37189  52.0036 333.8242 0000602 102.2114 280.9222 12.62262742549580
GLOBALSTAR M076 [+]     
1 37190U 10054C   22254.39972664 -.00000078  00000+0  14289-3 0  9993
2 37190  52.0049 333.3048 0000242 120.2603 316.7966 12.62255383549618
GLOBALSTAR M077 [+]     
1 37191U 10054D   22254.13442847 -.00000084  00000+0  10795-3 0  9996
2 37191  52.0066 290.6795 0000372  93.9598 276.1469 12.62265962550326
GLOBALSTAR M075 [+]     
1 37192U 10054E   22253.79659150 -.00000103  00000+0  63009-5 0  9995
2 37192  51.9973  17.9559 0000578 111.9926  43.0846 12.62267659548405
GLOBALSTAR M073 [+]     
1 37193U 10054F   22254.41889082 -.00000084  00000+0  10758-3 0  9994
2 37193  52.0051 289.1160 0000359 101.7458   2.0727 12.62267334550361
GLOBALSTAR M083 [+]     
1 37739U 11033A   22254.18928271 -.00000104  00000+0 -20402-5 0  9999
2 37739  51.9844 239.9218 0000446 114.0915 327.4809 12.62269961519665
GLOBALSTAR M088 [+]     
1 37740U 11033B   22254.09835681 -.00000073  00000+0  16918-3 0  9992
2 37740  51.9725 146.5410 0000461  93.3274  54.0684 12.62265683515124
GLOBALSTAR M091 [+]     
1 37741U 11033C   22253.77993569 -.00000078  00000+0  14394-3 0  9998
2 37741  51.9991 109.2580 0000679  98.1170 340.7704 12.62267449515583
GLOBALSTAR M085 [+]     
1 37742U 11033D   22253.94396337 -.00000107  00000+0 -17391-4 0  9993
2 37742  51.9871  60.6897 0000736  98.5697  66.5159 12.62267473516602
GLOBALSTAR M081 [+]     
1 37743U 11033E   22254.49602061 -.00000108  00000+0 -22344-4 0  9994
2 37743  51.9961  61.1722 0000533 105.2743 289.6770 12.62263335516711
GLOBALSTAR M089 [+]     
1 37744U 11033F   22254.54578483 -.00000115  00000+0 -64240-4 0  9990
2 37744  51.9956  15.4404 0000569  72.8540   7.8735 12.62267689517435
GLOBALSTAR M084 [+]     
1 38040U 11080A   22254.16286097 -.00000109  00000+0 -30254-4 0  9998
2 38040  51.9987 243.3620 0000348  48.9441  30.6014 12.62268347495396
GLOBALSTAR M080 [+]     
1 38041U 11080B   22254.13600348 -.00000113  00000+0 -50903-4 0  9993
2 38041  52.0037 244.6964 0000335  30.1977  46.5922 12.62268737495378
GLOBALSTAR M082 [+]     
1 38042U 11080C   22253.29467184 -.00000119  00000+0 -87180-4 0  9992
2 38042  52.0062 202.5948 0000758 101.4237  51.1523 12.62270995495831
GLOBALSTAR M092 [+]     
1 38043U 11080D   22254.02957618 -.00000078  00000+0  14507-3 0  9996
2 38043  52.0078 290.6829 0000549  62.5675 310.8701 12.62263764494597
GLOBALSTAR M090 [+]     
1 38044U 11080E   22254.18944709 -.00000111  00000+0 -40357-4 0  9993
2 38044  51.9873 194.9818 0000389  93.0420  47.7522 12.62265898496108
GLOBALSTAR M086 [+]     
1 38045U 11080F   22253.87573764 -.00000122  00000+0 -99604-4 0  9999
2 38045  51.9885 196.4081 0000727 249.3143 146.1010 12.62265236495971
GLOBALSTAR M097 [+]     
1 39072U 13005A   22254.05311160 -.00000077  00000+0  15177-3 0  9990
2 39072  52.0039 109.3893 0000622 107.7955 252.2980 12.62275000443328
GLOBALSTAR M093 [+]     
1 39073U 13005B   22253.78881471 -.00000082  00000+0  12376-3 0  9991
2 39073  51.9802 105.1129 0000630 115.4527 244.6405 12.62264754443164
GLOBALSTAR M094 [+]     
1 39074U 13005C   22254.50163188 -.00000109  00000+0 -28563-4 0  9998
2 39074  51.9985  16.3160 0000602 109.5776 250.5156 12.62268665444888
GLOBALSTAR M096 [+]     
1 39075U 13005D   22253.80229073 -.00000100  00000+0  20799-4 0  9990
2 39075  52.0078  66.1695 0000632 108.3367 251.7569 12.62269864443697
GLOBALSTAR M078 [+]     
1 39076U 13005E   22253.85493658 -.00000073  00000+0  17437-3 0  9991
2 39076  51.9863 151.8944 0001346  93.6183 266.4838 12.62263850442322
GLOBALSTAR M095 [+]     
1 39077U 13005F   22254.11863853 -.00000075  00000+0  15992-3 0  9996
2 39077  51.9791 148.7880 0000978 104.8889 255.2086 12.62270559442577
GLOBALSTAR FM15 [+]     
1 52888U 22064A   22254.01603132 -.00000128  00000+0  00000+0 0  9996
2 52888  51.9792 297.9787 0010076 165.6843 194.4352 13.37541221 11180
